STARLINK-5856           
1 55914U 23037A   25324.13803622  .00004879  00000+0  41637-3 0  9991
2 55914  70.0004 220.8240 0002979 272.4990  87.5828 14.98337075147765
STARLINK-5859           
1 55915U 23037B   25324.12133473  .00000950  00000+0  87387-4 0  9990
2 55915  69.9997 220.7645 0002726 271.3870  88.6977 14.98329053147761
STARLINK-5796           
1 55916U 23037C   25324.13387431  .00000330  00000+0  35488-4 0  9994
2 55916  70.0003 220.8086 0002315 282.1457  77.9442 14.98308373147072
STARLINK-5855           
1 55917U 23037D   25324.16544721  .01782504  42048-5  99801-3 0  9998
2 55917  69.9507 122.1638 0006922 286.1683  73.8775 16.19052630149500
STARLINK-5867           
1 55918U 23037E   25324.12967856  .00001088  00000+0  98973-4 0  9999
2 55918  69.9992 220.7940 0003016 269.9216  90.1597 14.98330252147070
STARLINK-5871           
1 55919U 23037F   25324.12149396  .00001096  00000+0  99664-4 0  9998
2 55919  69.9992 220.7648 0002782 270.0614  90.0227 14.98333117147072
STARLINK-5862           
1 55920U 23037G   25324.05849385  .00003206  00000+0  27626-3 0  9990
2 55920  69.9983 201.0699 0003350 268.3658  91.7117 14.98344655147550
STARLINK-5861           
1 55921U 23037H   25324.17139677 -.00006523  00000+0 -53912-3 0  9994
2 55921  69.9996 220.5369 0002408 278.4058  81.6828 14.98354080147082
STARLINK-5863           
1 55922U 23037J   25324.17556020  .00006841  00000+0  58029-3 0  9995
2 55922  70.0003 220.5518 0002914 274.8737  85.2089 14.98348254147082
STARLINK-5854           
1 55923U 23037K   25324.11298809 -.00001222  00000+0 -94631-4 0  9998
2 55923  69.9991 220.7339 0003156 282.4963  77.5843 14.98339261147073
STARLINK-5849           
1 55924U 23037L   25324.12107928 -.00017189  00000+0 -14337-2 0  9993
2 55924  69.9983 200.8848 0002994 264.4713  95.6105 14.98400621147566
STARLINK-5922           
1 55925U 23037M   25324.10046867 -.00000023  00000+0  58483-5 0  9997
2 55925  70.0042 220.6909 0002699 251.4015 108.6851 14.98329009147076
STARLINK-5921           
1 55926U 23037N   25324.04601794 -.00000424  00000+0 -27751-4 0  9996
2 55926  69.9985 201.0256 0003114 271.5675  88.5127 14.98318568147559
STARLINK-5919           
1 55927U 23037P   25324.09226889  .00001278  00000+0  11487-3 0  9994
2 55927  69.9990 220.6619 0003114 271.2909  88.7893 14.98335355147075
STARLINK-5930           
1 55928U 23037Q   25324.15470086  .00000872  00000+0  80880-4 0  9995
2 55928  70.0000 220.4776 0002663 273.0439  87.0416 14.98323937147086
STARLINK-5896           
1 55930U 23037S   25324.08353926  .00000668  00000+0  63792-4 0  9999
2 55930  69.9988 200.7581 0003104 272.8376  87.2428 14.98330046147561
