[{"OBJECT_NAME":"STARLINK-5856","OBJECT_ID":"2023-037A","EPOCH":"2025-11-20T03:18:46.329408","MEAN_MOTION":14.98337075,"ECCENTRICITY":0.0002979,"INCLINATION":70.0004,"RA_OF_ASC_NODE":220.824,"ARG_OF_PERICENTER":272.499,"MEAN_ANOMALY":87.5828,"EPHEMERIS_TYPE":0,"CLASSIFICATION_TYPE":"U","NORAD_CAT_ID":55914,"ELEMENT_SET_NO":999,"REV_AT_EPOCH":14776,"BSTAR":0.00041637241,"MEAN_MOTION_DOT":4.879e-5,"MEAN_MOTION_DDOT":0},{"OBJECT_NAME":"STARLINK-5859","OBJECT_ID":"2023-037B","EPOCH":"2025-11-20T02:54:43.320672","MEAN_MOTION":14.98329053,"ECCENTRICITY":0.00027264,"INCLINATION":69.9997,"RA_OF_ASC_NODE":220.7645,"ARG_OF_PERICENTER":271.387,"MEAN_ANOMALY":88.6977,"EPHEMERIS_TYPE":0,"CLASSIFICATION_TYPE":"U","NORAD_CAT_ID":55915,"ELEMENT_SET_NO":999,"REV_AT_EPOCH":14776,"BSTAR":8.7386652e-5,"MEAN_MOTION_DOT":9.5e-6,"MEAN_MOTION_DDOT":0},{"OBJECT_NAME":"STARLINK-5796","OBJECT_ID":"2023-037C","EPOCH":"2025-11-20T03:12:46.740384","MEAN_MOTION":14.98308373,"ECCENTRICITY":0.00023152,"INCLINATION":70.0003,"RA_OF_ASC_NODE":220.8086,"ARG_OF_PERICENTER":282.1457,"MEAN_ANOMALY":77.9442,"EPHEMERIS_TYPE":0,"CLASSIFICATION_TYPE":"U","NORAD_CAT_ID":55916,"ELEMENT_SET_NO":999,"REV_AT_EPOCH":14707,"BSTAR":3.5487979e-5,"MEAN_MOTION_DOT":3.3e-6,"MEAN_MOTION_DDOT":0},{"OBJECT_NAME":"STARLINK-5855","OBJECT_ID":"2023-037D","EPOCH":"2025-11-20T03:58:14.638944","MEAN_MOTION":16.1905263,"ECCENTRICITY":0.00069228,"INCLINATION":69.9507,"RA_OF_ASC_NODE":122.1638,"ARG_OF_PERICENTER":286.1683,"MEAN_ANOMALY":73.8775,"EPHEMERIS_TYPE":0,"CLASSIFICATION_TYPE":"U","NORAD_CAT_ID":55917,"ELEMENT_SET_NO":999,"REV_AT_EPOCH":14950,"BSTAR":0.00099800726,"MEAN_MOTION_DOT":0.01782504,"MEAN_MOTION_DDOT":4.204822e-6},{"OBJECT_NAME":"STARLINK-5867","OBJECT_ID":"2023-037E","EPOCH":"2025-11-20T03:06:44.227584","MEAN_MOTION":14.98330252,"ECCENTRICITY":0.00030168,"INCLINATION":69.9992,"RA_OF_ASC_NODE":220.794,"ARG_OF_PERICENTER":269.9216,"MEAN_ANOMALY":90.1597,"EPHEMERIS_TYPE":0,"CLASSIFICATION_TYPE":"U","NORAD_CAT_ID":55918,"ELEMENT_SET_NO":999,"REV_AT_EPOCH":14707,"BSTAR":9.897254e-5,"MEAN_MOTION_DOT":1.088e-5,"MEAN_MOTION_DDOT":0},{"OBJECT_NAME":"STARLINK-5871","OBJECT_ID":"2023-037F","EPOCH":"2025-11-20T02:54:57.078144","MEAN_MOTION":14.98333117,"ECCENTRICITY":0.00027826,"INCLINATION":69.9992,"RA_OF_ASC_NODE":220.7648,"ARG_OF_PERICENTER":270.0614,"MEAN_ANOMALY":90.0227,"EPHEMERIS_TYPE":0,"CLASSIFICATION_TYPE":"U","NORAD_CAT_ID":55919,"ELEMENT_SET_NO":999,"REV_AT_EPOCH":14707,"BSTAR":9.9664489e-5,"MEAN_MOTION_DOT":1.096e-5,"MEAN_MOTION_DDOT":0},{"OBJECT_NAME":"STARLINK-5862","OBJECT_ID":"2023-037G","EPOCH":"2025-11-20T01:24:13.868640","MEAN_MOTION":14.98344655,"ECCENTRICITY":0.00033507,"INCLINATION":69.9983,"RA_OF_ASC_NODE":201.0699,"ARG_OF_PERICENTER":268.3658,"MEAN_ANOMALY":91.7117,"EPHEMERIS_TYPE":0,"CLASSIFICATION_TYPE":"U","NORAD_CAT_ID":55920,"ELEMENT_SET_NO":999,"REV_AT_EPOCH":14755,"BSTAR":0.00027626165,"MEAN_MOTION_DOT":3.206e-5,"MEAN_MOTION_DDOT":0},{"OBJECT_NAME":"STARLINK-5861","OBJECT_ID":"2023-037H","EPOCH":"2025-11-20T04:06:48.680928","MEAN_MOTION":14.9835408,"ECCENTRICITY":0.00024084,"INCLINATION":69.9996,"RA_OF_ASC_NODE":220.5369,"ARG_OF_PERICENTER":278.4058,"MEAN_ANOMALY":81.6828,"EPHEMERIS_TYPE":0,"CLASSIFICATION_TYPE":"U","NORAD_CAT_ID":55921,"ELEMENT_SET_NO":999,"REV_AT_EPOCH":14708,"BSTAR":-0.00053911837,"MEAN_MOTION_DOT":-6.523e-5,"MEAN_MOTION_DDOT":0},{"OBJECT_NAME":"STARLINK-5863","OBJECT_ID":"2023-037J","EPOCH":"2025-11-20T04:12:48.401280","MEAN_MOTION":14.98348254,"ECCENTRICITY":0.00029147,"INCLINATION":70.0003,"RA_OF_ASC_NODE":220.5518,"ARG_OF_PERICENTER":274.8737,"MEAN_ANOMALY":85.2089,"EPHEMERIS_TYPE":0,"CLASSIFICATION_TYPE":"U","NORAD_CAT_ID":55922,"ELEMENT_SET_NO":999,"REV_AT_EPOCH":14708,"BSTAR":0.00058028636,"MEAN_MOTION_DOT":6.841e-5,"MEAN_MOTION_DDOT":0},{"OBJECT_NAME":"STARLINK-5854","OBJECT_ID":"2023-037K","EPOCH":"2025-11-20T02:42:42.170976","MEAN_MOTION":14.98339261,"ECCENTRICITY":0.00031563,"INCLINATION":69.9991,"RA_OF_ASC_NODE":220.7339,"ARG_OF_PERICENTER":282.4963,"MEAN_ANOMALY":77.5843,"EPHEMERIS_TYPE":0,"CLASSIFICATION_TYPE":"U","NORAD_CAT_ID":55923,"ELEMENT_SET_NO":999,"REV_AT_EPOCH":14707,"BSTAR":-9.4631386e-5,"MEAN_MOTION_DOT":-1.222e-5,"MEAN_MOTION_DDOT":0},{"OBJECT_NAME":"STARLINK-5849","OBJECT_ID":"2023-037L","EPOCH":"2025-11-20T02:54:21.249792","MEAN_MOTION":14.98400621,"ECCENTRICITY":0.00029943,"INCLINATION":69.9983,"RA_OF_ASC_NODE":200.8848,"ARG_OF_PERICENTER":264.4713,"MEAN_ANOMALY":95.6105,"EPHEMERIS_TYPE":0,"CLASSIFICATION_TYPE":"U","NORAD_CAT_ID":55924,"ELEMENT_SET_NO":999,"REV_AT_EPOCH":14756,"BSTAR":-0.0014337157,"MEAN_MOTION_DOT":-0.00017189,"MEAN_MOTION_DDOT":0},{"OBJECT_NAME":"STARLINK-5922","OBJECT_ID":"2023-037M","EPOCH":"2025-11-20T02:24:40.493088","MEAN_MOTION":14.98329009,"ECCENTRICITY":0.00026999,"INCLINATION":70.0042,"RA_OF_ASC_NODE":220.6909,"ARG_OF_PERICENTER":251.4015,"MEAN_ANOMALY":108.6851,"EPHEMERIS_TYPE":0,"CLASSIFICATION_TYPE":"U","NORAD_CAT_ID":55925,"ELEMENT_SET_NO":999,"REV_AT_EPOCH":14707,"BSTAR":5.848322e-6,"MEAN_MOTION_DOT":-2.3e-7,"MEAN_MOTION_DDOT":0},{"OBJECT_NAME":"STARLINK-5921","OBJECT_ID":"2023-037N","EPOCH":"2025-11-20T01:06:15.950016","MEAN_MOTION":14.98318568,"ECCENTRICITY":0.0003114,"INCLINATION":69.9985,"RA_OF_ASC_NODE":201.0256,"ARG_OF_PERICENTER":271.5675,"MEAN_ANOMALY":88.5127,"EPHEMERIS_TYPE":0,"CLASSIFICATION_TYPE":"U","NORAD_CAT_ID":55926,"ELEMENT_SET_NO":999,"REV_AT_EPOCH":14755,"BSTAR":-2.7751238e-5,"MEAN_MOTION_DOT":-4.24e-6,"MEAN_MOTION_DDOT":0},{"OBJECT_NAME":"STARLINK-5919","OBJECT_ID":"2023-037P","EPOCH":"2025-11-20T02:12:52.032096","MEAN_MOTION":14.98335355,"ECCENTRICITY":0.00031142,"INCLINATION":69.999,"RA_OF_ASC_NODE":220.6619,"ARG_OF_PERICENTER":271.2909,"MEAN_ANOMALY":88.7893,"EPHEMERIS_TYPE":0,"CLASSIFICATION_TYPE":"U","NORAD_CAT_ID":55927,"ELEMENT_SET_NO":999,"REV_AT_EPOCH":14707,"BSTAR":0.00011486783,"MEAN_MOTION_DOT":1.278e-5,"MEAN_MOTION_DDOT":0},{"OBJECT_NAME":"STARLINK-5930","OBJECT_ID":"2023-037Q","EPOCH":"2025-11-20T03:42:46.154304","MEAN_MOTION":14.98323937,"ECCENTRICITY":0.00026632,"INCLINATION":70,"RA_OF_ASC_NODE":220.4776,"ARG_OF_PERICENTER":273.0439,"MEAN_ANOMALY":87.0416,"EPHEMERIS_TYPE":0,"CLASSIFICATION_TYPE":"U","NORAD_CAT_ID":55928,"ELEMENT_SET_NO":999,"REV_AT_EPOCH":14708,"BSTAR":8.08802e-5,"MEAN_MOTION_DOT":8.72e-6,"MEAN_MOTION_DDOT":0},{"OBJECT_NAME":"STARLINK-5896","OBJECT_ID":"2023-037S","EPOCH":"2025-11-20T02:00:17.792064","MEAN_MOTION":14.98330046,"ECCENTRICITY":0.00031046,"INCLINATION":69.9988,"RA_OF_ASC_NODE":200.7581,"ARG_OF_PERICENTER":272.8376,"MEAN_ANOMALY":87.2428,"EPHEMERIS_TYPE":0,"CLASSIFICATION_TYPE":"U","NORAD_CAT_ID":55930,"ELEMENT_SET_NO":999,"REV_AT_EPOCH":14756,"BSTAR":6.3792495e-5,"MEAN_MOTION_DOT":6.68e-6,"MEAN_MOTION_DDOT":0}]
